start=new Date('2021-09-07T00:00:00.000Z').valueOf();
sats=[{"DECAY_DATE":null,"SEMIMAJOR_AXIS":"6925.351","EPOCH":"2021-09-06T18:49:41.090304","MEAN_MOTION":"15.06399149","REV_AT_EPOCH":"9192","RA_OF_ASC_NODE":"170.8977","LAUNCH_DATE":"2020-01-07","GP_ID":"184222915","ECCENTRICITY":"0.00018350","INCLINATION":"53.0554","MEAN_ELEMENT_THEORY":"SGP4","OBJECT_NAME":"STARLINK-1123","CENTER_NAME":"EARTH","PERIAPSIS":"545.945","MEAN_MOTION_DOT":"-0.00000555","FILE":"3109923","OBJECT_ID":"2020-001S","SITE":"AFETR","MEAN_ANOMALY":"287.8162","BSTAR":"-0.00001834900000","REF_FRAME":"TEME","PERIOD":"95.592","CLASSIFICATION_TYPE":"U","OBJECT_TYPE":"PAYLOAD","TIME_SYSTEM":"UTC","MEAN_MOTION_DDOT":"0.0000000000000","RCS_SIZE":"LARGE","NORAD_CAT_ID":"44930","ELEMENT_SET_NO":"999","TLE_LINE2":"2 44930  53.0554 170.8977 0001835  72.3027 287.8162 15.06399149 91923","ARG_OF_PERICENTER":"72.3027","APOAPSIS":"548.487","COUNTRY_CODE":"US","TLE_LINE1":"1 44930U 20001S   21249.78450336 -.00000555  00000-0 -18349-4 0  9993","EPHEMERIS_TYPE":"0"},{"MEAN_ANOMALY":"292.7734","BSTAR":"-0.00001099700000","OBJECT_ID":"2020-001T","SITE":"AFETR","FILE":"3109923","RCS_SIZE":"LARGE","MEAN_MOTION_DDOT":"0.0000000000000","OBJECT_TYPE":"PAYLOAD","TIME_SYSTEM":"UTC","PERIOD":"95.592","CLASSIFICATION_TYPE":"U","REF_FRAME":"TEME","ELEMENT_SET_NO":"999","TLE_LINE2":"2 44931  53.0536 170.6924 0001814  67.3447 292.7734 15.06397192 92670","ARG_OF_PERICENTER":"67.3447","NORAD_CAT_ID":"44931","TLE_LINE1":"1 44931U 20001T   21249.82873937 -.00000445  00000-0 -10997-4 0  9994","EPHEMERIS_TYPE":"0","COUNTRY_CODE":"US","APOAPSIS":"548.478","MEAN_MOTION":"15.06397192","REV_AT_EPOCH":"9267","RA_OF_ASC_NODE":"170.6924","SEMIMAJOR_AXIS":"6925.357","EPOCH":"2021-09-06T19:53:23.081568","DECAY_DATE":null,"LAUNCH_DATE":"2020-01-07","MEAN_ELEMENT_THEORY":"SGP4","INCLINATION":"53.0536","GP_ID":"184224166","ECCENTRICITY":"0.00018140","MEAN_MOTION_DOT":"-0.00000445","OBJECT_NAME":"STARLINK-1128","CENTER_NAME":"EARTH","PERIAPSIS":"545.966"},{"MEAN_MOTION_DOT":"-0.00000247","OBJECT_NAME":"STARLINK-1130","CENTER_NAME":"EARTH","PERIAPSIS":"545.983","INCLINATION":"53.0554","MEAN_ELEMENT_THEORY":"SGP4","GP_ID":"184223917","ECCENTRICITY":"0.00017930","LAUNCH_DATE":"2020-01-07","SEMIMAJOR_AXIS":"6925.360","EPOCH":"2021-09-06T20:09:18.273312","MEAN_MOTION":"15.06396267","RA_OF_ASC_NODE":"170.6504","REV_AT_EPOCH":"9316","DECAY_DATE":null,"EPHEMERIS_TYPE":"0","TLE_LINE1":"1 44932U 20001U   21249.83979483 -.00000247  00000-0  23185-5 0  9992","APOAPSIS":"548.467","COUNTRY_CODE":"US","ELEMENT_SET_NO":"999","ARG_OF_PERICENTER":"62.0774","TLE_LINE2":"2 44932  53.0554 170.6504 0001793  62.0774 298.0397 15.06396267 93167","NORAD_CAT_ID":"44932","TIME_SYSTEM":"UTC","OBJECT_TYPE":"PAYLOAD","MEAN_MOTION_DDOT":"0.0000000000000","RCS_SIZE":"LARGE","REF_FRAME":"TEME","PERIOD":"95.592","CLASSIFICATION_TYPE":"U","OBJECT_ID":"2020-001U","SITE":"AFETR","MEAN_ANOMALY":"298.0397","BSTAR":"0.00000231850000","FILE":"3109923"},{"TLE_LINE1":"1 44933U 20001V   21249.86559077 -.00000647  00000-0 -24530-4 0  9998","EPHEMERIS_TYPE":"0","APOAPSIS":"548.454","COUNTRY_CODE":"US","ELEMENT_SET_NO":"999","TLE_LINE2":"2 44933  53.0540 170.5278 0001812  64.6370 295.4806 15.06404736 93226","ARG_OF_PERICENTER":"64.6370","NORAD_CAT_ID":"44933","TIME_SYSTEM":"UTC","OBJECT_TYPE":"PAYLOAD","RCS_SIZE":"LARGE","MEAN_MOTION_DDOT":"0.0000000000000","REF_FRAME":"TEME","PERIOD":"95.592","CLASSIFICATION_TYPE":"U","OBJECT_ID":"2020-001V","SITE":"AFETR","MEAN_ANOMALY":"295.4806","BSTAR":"-0.00002453000000","FILE":"3109923","MEAN_MOTION_DOT":"-0.00000647","OBJECT_NAME":"STARLINK-1144","CENTER_NAME":"EARTH","PERIAPSIS":"545.944","INCLINATION":"53.0540","MEAN_ELEMENT_THEORY":"SGP4","GP_ID":"184222665","ECCENTRICITY":"0.00018120","LAUNCH_DATE":"2020-01-07","SEMIMAJOR_AXIS":"6925.334","EPOCH":"2021-09-06T20:46:27.042528","MEAN_MOTION":"15.06404736","REV_AT_EPOCH":"9322","RA_OF_ASC_NODE":"170.5278","DECAY_DATE":null},{"CENTER_NAME":"EARTH","PERIAPSIS":"545.876","OBJECT_NAME":"STARLINK-1071","MEAN_MOTION_DOT":"-0.00000428","ECCENTRICITY":"0.00019510","GP_ID":"184223415","INCLINATION":"53.0540","MEAN_ELEMENT_THEORY":"SGP4","LAUNCH_DATE":"2020-01-07","DECAY_DATE":null,"EPOCH":"2021-09-06T21:05:02.609952","SEMIMAJOR_AXIS":"6925.362","RA_OF_ASC_NODE":"150.4703","REV_AT_EPOCH":"9221","MEAN_MOTION":"15.06395499","APOAPSIS":"548.578","COUNTRY_CODE":"US","TLE_LINE1":"1 44934U 20001W   21249.87850243 -.00000428  00000-0 -98285-5 0  9995","EPHEMERIS_TYPE":"0","NORAD_CAT_ID":"44934","TLE_LINE2":"2 44934  53.0540 150.4703 0001951  72.9678 287.1524 15.06395499 92212","ARG_OF_PERICENTER":"72.9678","ELEMENT_SET_NO":"999","REF_FRAME":"TEME","CLASSIFICATION_TYPE":"U","PERIOD":"95.592","OBJECT_TYPE":"PAYLOAD","TIME_SYSTEM":"UTC","RCS_SIZE":"LARGE","MEAN_MOTION_DDOT":"0.0000000000000","FILE":"3109923","SITE":"AFETR","OBJECT_ID":"2020-001W","BSTAR":"-0.00000982850000","MEAN_ANOMALY":"287.1524"},{"OBJECT_ID":"2020-001X","SITE":"AFETR","MEAN_ANOMALY":"250.1160","BSTAR":"0.00861670000000","FILE":"3109923","TIME_SYSTEM":"UTC","OBJECT_TYPE":"PAYLOAD","MEAN_MOTION_DDOT":"0.0000000000000","RCS_SIZE":"LARGE","REF_FRAME":"TEME","PERIOD":"92.822","CLASSIFICATION_TYPE":"U","ELEMENT_SET_NO":"999","TLE_LINE2":"2 44935  53.0528 145.9929 0002083 110.0073 250.1160 15.51352559 92281","ARG_OF_PERICENTER":"110.0073","NORAD_CAT_ID":"44935","TLE_LINE1":"1 44935U 20001X   21249.89627032  .00552778  00000-0  86167-2 0  9997","EPHEMERIS_TYPE":"0","APOAPSIS":"414.193","COUNTRY_CODE":"US","SEMIMAJOR_AXIS":"6790.913","EPOCH":"2021-09-06T21:30:37.755648","MEAN_MOTION":"15.51352559","RA_OF_ASC_NODE":"145.9929","REV_AT_EPOCH":"9228","DECAY_DATE":null,"LAUNCH_DATE":"2020-01-07","INCLINATION":"53.0528","MEAN_ELEMENT_THEORY":"SGP4","GP_ID":"184223667","ECCENTRICITY":"0.00020830","MEAN_MOTION_DOT":"0.00552778","OBJECT_NAME":"STARLINK-1072","CENTER_NAME":"EARTH","PERIAPSIS":"411.364"},{"MEAN_ELEMENT_THEORY":"SGP4","INCLINATION":"53.0622","GP_ID":"184224417","ECCENTRICITY":"0.00028970","MEAN_MOTION_DOT":"0.00026815","OBJECT_NAME":"STARLINK-1078","PERIAPSIS":"342.470","CENTER_NAME":"EARTH","MEAN_MOTION":"15.75075735","REV_AT_EPOCH":"9284","RA_OF_ASC_NODE":"105.3137","SEMIMAJOR_AXIS":"6722.553","EPOCH":"2021-09-06T20:10:42.895200","DECAY_DATE":null,"LAUNCH_DATE":"2020-01-07","ELEMENT_SET_NO":"999","ARG_OF_PERICENTER":"86.1013","TLE_LINE2":"2 44936  53.0622 105.3137 0002897  86.1013 274.0337 15.75075735 92845","NORAD_CAT_ID":"44936","TLE_LINE1":"1 44936U 20001Y   21249.84077425  .00026815  00000-0  17977-3 0  9990","EPHEMERIS_TYPE":"0","COUNTRY_CODE":"US","APOAPSIS":"346.365","MEAN_ANOMALY":"274.0337","BSTAR":"0.00017977000000","OBJECT_ID":"2020-001Y","SITE":"AFETR","FILE":"3109923","RCS_SIZE":"LARGE","MEAN_MOTION_DDOT":"0.0000000000000","TIME_SYSTEM":"UTC","OBJECT_TYPE":"PAYLOAD","CLASSIFICATION_TYPE":"U","PERIOD":"91.424","REF_FRAME":"TEME"},{"SITE":"AFETR","OBJECT_ID":"2020-001Z","BSTAR":"-0.00000852230000","MEAN_ANOMALY":"289.4334","FILE":"3109923","TIME_SYSTEM":"UTC","OBJECT_TYPE":"PAYLOAD","MEAN_MOTION_DDOT":"0.0000000000000","RCS_SIZE":"LARGE","REF_FRAME":"TEME","PERIOD":"95.592","CLASSIFICATION_TYPE":"U","TLE_LINE2":"2 44937  53.0557 150.5744 0001983  70.6869 289.4334 15.06395774 92211","ARG_OF_PERICENTER":"70.6869","ELEMENT_SET_NO":"999","NORAD_CAT_ID":"44937","EPHEMERIS_TYPE":"0","TLE_LINE1":"1 44937U 20001Z   21249.85638291 -.00000409  00000-0 -85223-5 0  9990","APOAPSIS":"548.600","COUNTRY_CODE":"US","EPOCH":"2021-09-06T20:33:11.483424","SEMIMAJOR_AXIS":"6925.362","RA_OF_ASC_NODE":"150.5744","REV_AT_EPOCH":"9221","MEAN_MOTION":"15.06395774","DECAY_DATE":null,"LAUNCH_DATE":"2020-01-07","INCLINATION":"53.0557","MEAN_ELEMENT_THEORY":"SGP4","ECCENTRICITY":"0.00019830","GP_ID":"184223165","MEAN_MOTION_DOT":"-0.00000409","PERIAPSIS":"545.853","CENTER_NAME":"EARTH","OBJECT_NAME":"STARLINK-1079"},{"BSTAR":"-0.00001412700000","MEAN_ANOMALY":"281.9042","SITE":"AFETR","OBJECT_ID":"2020-001AA","FILE":"3109923","RCS_SIZE":"LARGE","MEAN_MOTION_DDOT":"0.0000000000000","TIME_SYSTEM":"UTC","OBJECT_TYPE":"PAYLOAD","PERIOD":"95.592","CLASSIFICATION_TYPE":"U","REF_FRAME":"TEME","TLE_LINE2":"2 44938  53.0541 150.7162 0001865  78.2156 281.9042 15.06403360 92206","ARG_OF_PERICENTER":"78.2156","ELEMENT_SET_NO":"999","NORAD_CAT_ID":"44938","EPHEMERIS_TYPE":"0","TLE_LINE1":"1 44938U 20001AA  21249.82321548 -.00000492  00000-0 -14127-4 0  9998","COUNTRY_CODE":"US","APOAPSIS":"548.495","REV_AT_EPOCH":"9220","RA_OF_ASC_NODE":"150.7162","MEAN_MOTION":"15.06403360","EPOCH":"2021-09-06T19:45:25.817472","SEMIMAJOR_AXIS":"6925.338","DECAY_DATE":null,"LAUNCH_DATE":"2020-01-07","MEAN_ELEMENT_THEORY":"SGP4","INCLINATION":"53.0541","ECCENTRICITY":"0.00018650","GP_ID":"184222916","MEAN_MOTION_DOT":"-0.00000492","PERIAPSIS":"545.912","CENTER_NAME":"EARTH","OBJECT_NAME":"STARLINK-1082"},{"GP_ID":"184224167","ECCENTRICITY":"0.00020210","MEAN_ELEMENT_THEORY":"SGP4","INCLINATION":"53.0556","OBJECT_NAME":"STARLINK-1083","CENTER_NAME":"EARTH","PERIAPSIS":"545.844","MEAN_MOTION_DOT":"-0.00000533","DECAY_DATE":null,"MEAN_MOTION":"15.06390303","RA_OF_ASC_NODE":"150.6915","REV_AT_EPOCH":"9220","SEMIMAJOR_AXIS":"6925.378","EPOCH":"2021-09-06T19:56:02.796288","LAUNCH_DATE":"2020-01-07","NORAD_CAT_ID":"44939","ELEMENT_SET_NO":"999","TLE_LINE2":"2 44939  53.0556 150.6915 0002021  73.6411 286.4800 15.06390303 92200","ARG_OF_PERICENTER":"73.6411","COUNTRY_CODE":"US","APOAPSIS":"548.643","TLE_LINE1":"1 44939U 20001AB  21249.83058792 -.00000533  00000-0 -16867-4 0  9997","EPHEMERIS_TYPE":"0","FILE":"3109923","MEAN_ANOMALY":"286.4800","BSTAR":"-0.00001686700000","OBJECT_ID":"2020-001AB","SITE":"AFETR","CLASSIFICATION_TYPE":"U","PERIOD":"95.593","REF_FRAME":"TEME","MEAN_MOTION_DDOT":"0.0000000000000","RCS_SIZE":"LARGE","OBJECT_TYPE":"PAYLOAD","TIME_SYSTEM":"UTC"}];
